ADRAS-J                 
1 58992U 24034A   24080.87685246  .00006466  00000+0  60688-3 0  9998
2 58992  98.2040  50.0000 0044076 341.5042  18.4572 14.93609049  4683
